OBJECT_NAME,OBJECT_ID,EPOCH,MEAN_MOTION,ECCENTRICITY,INCLINATION,RA_OF_ASC_NODE,ARG_OF_PERICENTER,MEAN_ANOMALY,EPHEMERIS_TYPE,CLASSIFICATION_TYPE,NORAD_CAT_ID,ELEMENT_SET_NO,REV_AT_EPOCH,BSTAR,MEAN_MOTION_DOT,MEAN_MOTION_DDOT
STARLINK-31341,2024-044D,2024-07-07T08:44:53.896416,15.25912813,.0000965,42.9983,310.4355,277.0018,83.0723,0,U,59155,999,2024,.40443E-3,.10337E-3,0
STARLINK-31338,2024-044E,2024-07-07T08:41:38.831136,15.25879823,.0001464,43.0015,310.4195,275.9171,84.1513,0,U,59156,999,2026,.79016E-4,.1808E-4,0
STARLINK-31334,2024-044F,2024-07-07T14:55:25.774176,15.25895696,.00009,42.9996,308.9297,291.7953,68.2803,0,U,59157,999,2012,.83427E-4,.1925E-4,0
STARLINK-31297,2024-044G,2024-07-07T12:19:16.495968,15.25911749,.0001239,43.0016,308.9614,276.7731,83.2979,0,U,59158,999,2032,.10024E-2,.26057E-3,0
STARLINK-31182,2024-044H,2024-07-07T17:57:25.407072,15.25907897,.0000608,42.9985,308.1596,271.8026,88.2756,0,U,59159,999,2035,.2503E-3,.6295E-4,0
STARLINK-31327,2024-044J,2024-07-07T09:07:29.898624,15.25903457,.0000991,43.0012,309.6781,264.3382,95.7356,0,U,59160,999,2030,.38057E-4,.738E-5,0
STARLINK-31256,2024-044K,2024-07-07T17:50:54.297600,15.25919582,.0001321,43.0013,308.1288,247.3692,112.7019,0,U,59161,999,2035,.18879E-3,.4685E-4,0
STARLINK-31272,2024-044L,2024-07-07T17:47:37.411008,15.25937632,.0001306,42.9988,308.1162,261.6403,98.4300,0,U,59162,999,2030,.25545E-3,.6436E-4,0
STARLINK-31278,2024-044M,2024-07-07T14:35:51.602496,15.25936767,.0001393,42.9987,308.8363,220.9507,139.1240,0,U,59163,999,2028,-.20014E-3,-.5493E-4,0
STARLINK-31309,2024-044N,2024-07-07T19:15:23.589504,15.25905764,.0001727,43.0014,307.7147,262.4229,97.6426,0,U,59164,999,2037,-.13525E-4,-.611E-5,0
STARLINK-31325,2024-044P,2024-07-07T08:12:20.933280,15.25886153,.0001579,43.0004,310.2748,244.4923,115.5765,0,U,59165,999,2026,-.98244E-4,-.2825E-4,0
STARLINK-31342,2024-044Q,2024-07-07T11:17:34.623168,15.25913491,.0001552,43.0009,309.5229,276.7323,83.3352,0,U,59166,999,2031,.46681E-4,.964E-5,0
STARLINK-31298,2024-044R,2024-07-07T19:05:37.107168,15.25926268,.0001149,43.0014,307.6586,267.9550,92.1169,0,U,59167,999,2010,-.5237E-4,-.1628E-4,0
STARLINK-31322,2024-044S,2024-07-07T12:02:28.255488,15.25903695,.0001216,42.9995,308.8702,265.8352,94.2360,0,U,59168,999,2032,-.8552E-5,-.481E-5,0
STARLINK-31329,2024-044T,2024-07-07T12:09:30.190752,15.25903293,.0000757,43.0002,308.9034,294.1889,65.8883,0,U,59169,999,2029,-.73716E-5,-.45E-5,0
STARLINK-31340,2024-044U,2024-07-07T18:59:46.578048,15.39220589,.0016918,43.0018,302.4486,0.3310,359.7554,0,U,59170,999,2027,.19863E-2,.7992E-3,0
STARLINK-31344,2024-044V,2024-07-07T08:57:43.240896,15.25902757,.0003075,43.0110,309.6249,275.6184,84.4316,0,U,59171,999,2030,.10623E-4,.19E-6,0
STARLINK-31348,2024-044W,2024-07-07T09:12:44.659008,15.40697896,.0001844,43.0024,295.8705,269.2955,90.7690,0,U,59172,999,2043,.103E-4,.127E-5,0
STARLINK-31289,2024-044X,2024-07-07T12:29:02.004576,15.25912933,.0001101,43.0026,309.0199,254.3624,105.7106,0,U,59173,999,2032,.22099E-4,.321E-5,0
STARLINK-31283,2024-044Y,2024-07-07T12:00:02.000160,15.40700040,.0001421,43.0013,295.4476,271.8949,273.7500,0,U,59174,999,595,-.22132E-3,-.9537E-4,0
STARLINK-31439,2024-045A,2024-07-07T13:23:19.078944,15.40681899,.0001222,43.0002,323.8619,240.6414,119.4321,0,U,59178,999,1955,.45777E-4,.1608E-4,0
STARLINK-31410,2024-045B,2024-07-07T18:51:33.915744,15.40681166,.0001525,43.0006,322.1285,297.0402,63.0299,0,U,59179,999,1959,.1218E-3,.4784E-4,0
STARLINK-31395,2024-045C,2024-07-07T18:35:25.443456,15.40715995,.0002266,43.0025,322.0468,280.3571,79.7030,0,U,59180,999,1959,.42097E-3,.17331E-3,0
STARLINK-31486,2024-045D,2024-07-07T17:56:54.865536,15.40690041,.0001561,43.0010,322.7078,238.2796,121.7908,0,U,59181,999,1958,.45531E-4,.1598E-4,0
STARLINK-31411,2024-045E,2024-07-07T16:13:53.246208,15.40693019,.000149,43.0028,323.0323,248.4998,111.5700,0,U,59182,999,1957,.42106E-4,.1455E-4,0
STARLINK-31347,2024-045F,2024-07-07T18:09:25.233984,15.40694981,.0001599,43.0022,321.0182,250.5419,109.5265,0,U,59183,999,1962,.29328E-4,.921E-5,0
STARLINK-31382,2024-045G,2024-07-07T09:24:59.272416,15.40691802,.0002207,43.0031,324.3346,268.4019,91.6585,0,U,59184,999,1953,.36658E-4,.1227E-4,0
STARLINK-31394,2024-045H,2024-07-08T01:30:00.973728,15.43332160,.0003598,43.0051,319.9193,354.2745,5.8071,0,U,59185,999,1964,.48484E-3,.21872E-3,0
STARLINK-31403,2024-045J,2024-07-07T15:51:45.924480,15.61436210,.0010264,42.9976,311.5246,22.3403,337.7907,0,U,59186,999,1960,.74166E-3,.65406E-3,0
STARLINK-31514,2024-045K,2024-07-07T11:01:33.631392,15.40705325,.0001735,42.9998,323.9757,264.9192,95.1467,0,U,59187,999,1954,.74069E-4,.2792E-4,0
