STARLINK-31341          
1 59155U 24044D   24189.36451269  .00010337  00000+0  40443-3 0  9990
2 59155  42.9983 310.4355 0000965 277.0018  83.0723 15.25912813 20246
STARLINK-31338          
1 59156U 24044E   24189.36225499  .00001808  00000+0  79016-4 0  9997
2 59156  43.0015 310.4195 0001464 275.9171  84.1513 15.25879823 20263
STARLINK-31334          
1 59157U 24044F   24189.62182609  .00001925  00000+0  83427-4 0  9993
2 59157  42.9996 308.9297 0000900 291.7953  68.2803 15.25895696 20129
STARLINK-31297          
1 59158U 24044G   24189.51338537  .00026057  00000+0  10024-2 0  9999
2 59158  43.0016 308.9614 0001239 276.7731  83.2979 15.25911749 20322
STARLINK-31182          
1 59159U 24044H   24189.74821073  .00006295  00000+0  25030-3 0  9993
2 59159  42.9985 308.1596 0000608 271.8026  88.2756 15.25907897 20359
STARLINK-31327          
1 59160U 24044J   24189.38020716  .00000738  00000+0  38057-4 0  9990
2 59160  43.0012 309.6781 0000991 264.3382  95.7356 15.25903457 20305
STARLINK-31256          
1 59161U 24044K   24189.74368400  .00004685  00000+0  18879-3 0  9990
2 59161  43.0013 308.1288 0001321 247.3692 112.7019 15.25919582 20353
STARLINK-31272          
1 59162U 24044L   24189.74140522  .00006436  00000+0  25545-3 0  9998
2 59162  42.9988 308.1162 0001306 261.6403  98.4300 15.25937632 20300
STARLINK-31278          
1 59163U 24044M   24189.60823614 -.00005493  00000+0 -20014-3 0  9994
2 59163  42.9987 308.8363 0001393 220.9507 139.1240 15.25936767 20280
STARLINK-31309          
1 59164U 24044N   24189.80235636 -.00000611  00000+0 -13525-4 0  9995
2 59164  43.0014 307.7147 0001727 262.4229  97.6426 15.25905764 20372
STARLINK-31325          
1 59165U 24044P   24189.34190895 -.00002825  00000+0 -98244-4 0  9992
2 59165  43.0004 310.2748 0001579 244.4923 115.5765 15.25886153 20268
STARLINK-31342          
1 59166U 24044Q   24189.47053962  .00000964  00000+0  46681-4 0  9998
2 59166  43.0009 309.5229 0001552 276.7323  83.3352 15.25913491 20318
STARLINK-31298          
1 59167U 24044R   24189.79556837 -.00001628  00000+0 -52370-4 0  9995
2 59167  43.0014 307.6586 0001149 267.9550  92.1169 15.25926268 20103
STARLINK-31322          
1 59168U 24044S   24189.50171592 -.00000481  00000+0 -85520-5 0  9996
2 59168  42.9995 308.8702 0001216 265.8352  94.2360 15.25903695 20324
STARLINK-31329          
1 59169U 24044T   24189.50659943 -.00000450  00000+0 -73716-5 0  9998
2 59169  43.0002 308.9034 0000757 294.1889  65.8883 15.25903293 20298
STARLINK-31340          
1 59170U 24044U   24189.79151132  .00079920  00000+0  19863-2 0  9994
2 59170  43.0018 302.4486 0016918   0.3310 359.7554 15.39220589 20272
STARLINK-31344          
1 59171U 24044V   24189.37341714  .00000019  00000+0  10623-4 0  9996
2 59171  43.0110 309.6249 0003075 275.6184  84.4316 15.25902757 20309
STARLINK-31348          
1 59172U 24044W   24189.38385022  .00000127  00000+0  10300-4 0  9990
2 59172  43.0024 295.8705 0001844 269.2955  90.7690 15.40697896 20435
STARLINK-31289          
1 59173U 24044X   24189.52016209  .00000321  00000+0  22099-4 0  9999
2 59173  43.0026 309.0199 0001101 254.3624 105.7106 15.25912933 20329
STARLINK-31283          
1 59174U 24044Y   24189.50002315 -.00009537  00000+0 -22132-3 0  9998
2 59174  43.0013 295.4476 0001421 271.8949 273.7500 15.40700040  5958
STARLINK-31439          
1 59178U 24045A   24189.55785971  .00001608  00000+0  45777-4 0  9994
2 59178  43.0002 323.8619 0001222 240.6414 119.4321 15.40681899 19553
STARLINK-31410          
1 59179U 24045B   24189.78580921  .00004784  00000+0  12180-3 0  9997
2 59179  43.0006 322.1285 0001525 297.0402  63.0299 15.40681166 19597
STARLINK-31395          
1 59180U 24045C   24189.77460004  .00017331  00000+0  42097-3 0  9999
2 59180  43.0025 322.0468 0002266 280.3571  79.7030 15.40715995 19592
STARLINK-31486          
1 59181U 24045D   24189.74785724  .00001598  00000+0  45531-4 0  9991
2 59181  43.0010 322.7078 0001561 238.2796 121.7908 15.40690041 19584
STARLINK-31411          
1 59182U 24045E   24189.67631072  .00001455  00000+0  42106-4 0  9997
2 59182  43.0028 323.0323 0001490 248.4998 111.5700 15.40693019 19573
STARLINK-31347          
1 59183U 24045F   24189.75654206  .00000921  00000+0  29328-4 0  9999
2 59183  43.0022 321.0182 0001599 250.5419 109.5265 15.40694981 19629
STARLINK-31382          
1 59184U 24045G   24189.39235269  .00001227  00000+0  36658-4 0  9998
2 59184  43.0031 324.3346 0002207 268.4019  91.6585 15.40691802 19534
STARLINK-31394          
1 59185U 24045H   24190.06251127  .00021872  00000+0  48484-3 0  9993
2 59185  43.0051 319.9193 0003598 354.2745   5.8071 15.43332160 19642
STARLINK-31403          
1 59186U 24045J   24189.66094820  .00065406  00000+0  74166-3 0  9990
2 59186  42.9976 311.5246 0010264  22.3403 337.7907 15.61436210 19608
STARLINK-31514          
1 59187U 24045K   24189.45941703  .00002792  00000+0  74069-4 0  9991
2 59187  42.9998 323.9757 0001735 264.9192  95.1467 15.40705325 19541
